[{"OBJECT_NAME":"STARLINK-5125","OBJECT_ID":"2022-125AG","EPOCH":"2026-03-09T16:27:24.129216","MEAN_MOTION":15.08835632,"ECCENTRICITY":0.00012386,"INCLINATION":53.2168,"RA_OF_ASC_NODE":214.0157,"ARG_OF_PERICENTER":90.5276,"MEAN_ANOMALY":269.5858,"EPHEMERIS_TYPE":0,"CLASSIFICATION_TYPE":"U","NORAD_CAT_ID":53994,"ELEMENT_SET_NO":999,"REV_AT_EPOCH":18946,"BSTAR":-1.1112167e-5,"MEAN_MOTION_DOT":-4.65e-6,"MEAN_MOTION_DDOT":0},{"OBJECT_NAME":"OBJECT H","OBJECT_ID":"2025-292H","EPOCH":"2026-03-09T22:24:53.558208","MEAN_MOTION":15.06373042,"ECCENTRICITY":0.00142604,"INCLINATION":97.6442,"RA_OF_ASC_NODE":145.7846,"ARG_OF_PERICENTER":348.9217,"MEAN_ANOMALY":11.1694,"EPHEMERIS_TYPE":0,"CLASSIFICATION_TYPE":"U","NORAD_CAT_ID":67000,"ELEMENT_SET_NO":999,"REV_AT_EPOCH":1338,"BSTAR":0.0005462937,"MEAN_MOTION_DOT":8.001e-5,"MEAN_MOTION_DDOT":0}]
